NORAD_CAT_ID,OBJECT_NAME,OBJECT_TYPE,EPOCH,MEAN_MOTION,ECCENTRICITY,INCLINATION,RA_OF_ASC_NODE,ARG_OF_PERICENTER,MEAN_ANOMALY,BSTAR,MEAN_MOTION_DOT,MEAN_MOTION_DDOT,TLE_LINE0,TLE_LINE1,TLE_LINE2,SEMIMAJOR_AXIS,PERIOD,APOGEE,PERIGEE,DECAYED
55418.0,STARLINK-5030,PAYLOAD,2023-03-14 02:22:43,15.69941743,0.0003671,69.9982,333.2719,275.1615,84.9161,7.5618e-05,8.896e-05,0.0,0 STARLINK-5030,1 55418U 23014AD  23073.09911411  .00008896  00000-0  75618-4 0  9996,2 55418  69.9982 333.2719 0003671 275.1615  84.9161 15.69941743  6701,6737.201,91.723,361.539,356.592,0.0
55418.0,STARLINK-5030,PAYLOAD,2023-03-14 16:08:29,15.69931748,0.0003157,69.9992,331.6607,276.3677,83.7159,4.4038e-05,5.087e-05,0.0,0 STARLINK-5030,1 55418U 23014AD  23073.67256355  .00005087  00000-0  44038-4 0  9990,2 55418  69.9992 331.6607 0003157 276.3677  83.7159 15.69931748  6797,6737.229,91.724,361.221,356.967,0.0
55418.0,STARLINK-5030,PAYLOAD,2023-03-14 20:43:44,15.69930372,0.000355,69.9984,331.122,281.8594,78.2203,5.8203e-05,6.793e-05,0.0,0 STARLINK-5030,1 55418U 23014AD  23073.86371470  .00006793  00000-0  58203-4 0  9991,2 55418  69.9984 331.1220 0003550 281.8594  78.2203 15.69930372  7769,6737.233,91.724,361.49,356.706,0.0
55418.0,STARLINK-5030,PAYLOAD,2023-03-15 02:50:45,15.69918653,0.0002708,69.9986,330.4045,276.1857,83.903,-2.8477e-05,-3.634e-05,0.0,0 STARLINK-5030,1 55418U 23014AD  23074.11858567 -.00003634  00000-0 -28477-4 0  9990,2 55418  69.9986 330.4045 0002708 276.1857  83.9030 15.69918653  6860,6737.267,91.724,360.956,357.307,0.0
55418.0,STARLINK-5030,PAYLOAD,2023-03-15 16:36:31,15.69924308,0.0003352,69.9989,328.7925,276.8681,83.2134,5.1618e-05,5.998e-05,0.0,0 STARLINK-5030,1 55418U 23014AD  23074.69203629  .00005998  00000-0  51618-4 0  9992,2 55418  69.9989 328.7925 0003352 276.8681  83.2134 15.69924308  7894,6737.251,91.724,361.374,356.857,0.0
55418.0,STARLINK-5030,PAYLOAD,2023-03-16 03:18:48,15.69905127,0.0002494,69.9994,327.5384,282.2529,77.8387,0.00010501,0.00012421,0.0,0 STARLINK-5030,1 55418U 23014AD  23075.13805714  .00012421  00000-0  10501-3 0  9999,2 55418  69.9994 327.5384 0002494 282.2529  77.8387 15.69905127  7026,6737.305,91.725,360.851,357.49,0.0
55418.0,STARLINK-5030,PAYLOAD,2023-03-16 20:08:04,15.69923998,0.0003756,69.9983,325.5665,270.1242,89.9523,0.0001997,0.00023869,0.0,0 STARLINK-5030,1 55418U 23014AD  23075.83894188  .00023869  00000-0  19970-3 0  9996,2 55418  69.9983 325.5665 0003756 270.1242  89.9523 15.69923998  8072,6737.251,91.724,361.647,356.586,0.0
55418.0,STARLINK-5030,PAYLOAD,2023-03-17 02:15:04,15.69944931,0.0003591,69.9983,324.8482,282.3746,77.7047,0.00023978,0.00028744,0.0,0 STARLINK-5030,1 55418U 23014AD  23076.09380749  .00028744  00000-0  23978-3 0  9998,2 55418  69.9983 324.8482 0003591 282.3746  77.7047 15.69944931  7178,6737.192,91.723,361.476,356.637,0.0
55418.0,STARLINK-5030,PAYLOAD,2023-03-17 09:53:50,15.69931968,0.0003493,70.0005,323.9539,271.7136,88.366,1.2977e-05,1.348e-05,0.0,0 STARLINK-5030,1 55418U 23014AD  23076.41239069  .00001348  00000-0  12977-4 0  9991,2 55418  70.0005 323.9539 0003493 271.7136  88.3660 15.69931968  7226,6737.229,91.724,361.447,356.74,0.0
55418.0,STARLINK-5030,PAYLOAD,2023-03-18 02:43:06,15.69946795,0.0003625,70.0,321.9844,271.5626,88.5154,0.00018121,0.00021654,0.0,0 STARLINK-5030,1 55418U 23014AD  23077.11327092  .00021654  00000-0  18121-3 0  9991,2 55418  70.0000 321.9844 0003625 271.5626  88.5154 15.69946795  7333,6737.186,91.723,361.493,356.609,0.0
55418.0,STARLINK-5030,PAYLOAD,2023-03-18 19:32:22,15.69945248,0.0003254,69.9987,320.0135,262.2548,97.8278,0.0001198,0.00014229,0.0,0 STARLINK-5030,1 55418U 23014AD  23077.81415367  .00014229  00000-0  11980-3 0  9997,2 55418  69.9987 320.0135 0003254 262.2548  97.8278 15.69945248  7449,6737.191,91.723,361.248,356.863,0.0
55418.0,STARLINK-5030,PAYLOAD,2023-03-18 22:35:53,15.69955069,0.0003329,69.9977,319.6527,267.4816,92.5998,0.00027429,0.0003294,0.0,0 STARLINK-5030,1 55418U 23014AD  23077.94158615  .00032940  00000-0  27429-3 0  9996,2 55418  69.9977 319.6527 0003329 267.4816  92.5998 15.69955069  8405,6737.163,91.722,361.27,356.785,0.0
55418.0,STARLINK-5030,PAYLOAD,2023-03-19 03:11:08,15.69928299,0.0002565,70.0001,319.118,261.6551,98.4354,2.8394e-05,3.203e-05,0.0,0 STARLINK-5030,1 55418U 23014AD  23078.13273902  .00003203  00000-0  28394-4 0  9998,2 55418  70.0001 319.1180 0002565 261.6551  98.4354 15.69928299  7493,6737.239,91.724,360.832,357.376,0.0
55418.0,STARLINK-5030,PAYLOAD,2023-03-19 09:18:09,15.6990576,0.0003016,69.9996,318.4009,261.7617,98.3237,-4.022e-05,-5.042e-05,0.0,0 STARLINK-5030,1 55418U 23014AD  23078.38761007 -.00005042  00000-0 -40220-4 0  9990,2 55418  69.9996 318.4009 0003016 261.7617  98.3237 15.69905760  7533,6737.304,91.725,361.201,357.137,0.0
55418.0,STARLINK-5030,PAYLOAD,2023-03-19 18:28:40,15.69926777,0.0003526,69.9989,317.3258,264.6996,95.3798,0.00024523,0.00029381,0.0,0 STARLINK-5030,1 55418U 23014AD  23078.76991190  .00029381  00000-0  24523-3 0  9997,2 55418  69.9989 317.3258 0003526 264.6996  95.3798 15.69926777  7593,6737.243,91.724,361.484,356.733,0.0
55418.0,STARLINK-5030,PAYLOAD,2023-03-20 03:39:10,15.69941043,0.0003231,69.9992,316.2514,266.8063,93.2763,0.00017111,0.00020426,0.0,0 STARLINK-5030,1 55418U 23014AD  23079.15220737  .00020426  00000-0  17111-3 0  9999,2 55418  69.9992 316.2514 0003231 266.8063  93.2763 15.69941043  8595,6737.203,91.723,361.244,356.891,0.0
55418.0,STARLINK-5030,PAYLOAD,2023-03-20 18:56:41,15.69985043,0.0003642,69.9986,314.46,261.0802,98.9981,0.00054387,0.00065868,0.0,0 STARLINK-5030,1 55418U 23014AD  23079.78937287  .00065868  00000-0  54387-3 0  9998,2 55418  69.9986 314.4600 0003642 261.0802  98.9981 15.69985043  8691,6737.077,91.721,361.395,356.488,0.0
55418.0,STARLINK-5030,PAYLOAD,2023-03-20 23:31:57,15.69944148,0.0003102,69.9987,313.9239,269.2044,90.8796,0.00020725,0.00024801,0.0,0 STARLINK-5030,1 55418U 23014AD  23079.98052399  .00024801  00000-0  20725-3 0  9993,2 55418  69.9987 313.9239 0003102 269.2044  90.8796 15.69944148  7788,6737.194,91.723,361.149,356.969,0.0
55418.0,STARLINK-5030,PAYLOAD,2023-03-22 01:31:44,15.69889694,0.0003675,69.9975,310.8767,294.225,65.8561,0.00021969,0.0002625,0.0,0 STARLINK-5030,1 55418U 23014AD  23081.06371148  .00026250  00000-0  21969-3 0  9992,2 55418  69.9975 310.8767 0003675 294.2250  65.8561 15.69889694  7954,6737.35,91.726,361.691,356.739,0.0
55418.0,STARLINK-5030,PAYLOAD,2023-03-22 16:49:15,15.69932927,0.0004355,69.996,309.0826,274.4073,85.6625,0.00014684,0.0001749,0.0,0 STARLINK-5030,1 55418U 23014AD  23081.70087383  .00017490  00000-0  14684-3 0  9990,2 55418  69.9960 309.0826 0004355 274.4073  85.6625 15.69932927  8054,6737.226,91.724,362.025,356.157,0.0
55418.0,STARLINK-5030,PAYLOAD,2023-03-23 00:28:01,15.69895116,0.0003798,69.9994,308.1905,255.6813,104.3961,-3.1879e-05,-4.04e-05,0.0,0 STARLINK-5030,1 55418U 23014AD  23082.01946283 -.00004040  00000-0 -31879-4 0  9993,2 55418  69.9994 308.1905 0003798 255.6813 104.3961 15.69895116  8108,6737.334,91.726,361.758,356.64,0.0
55418.0,STARLINK-5030,PAYLOAD,2023-03-23 11:10:17,15.69919972,0.0003418,69.9992,306.933,276.0579,84.0227,7.2882e-06,6.63e-06,0.0,0 STARLINK-5030,1 55418U 23014AD  23082.46547791  .00000663  00000-0  72882-5 0  9998,2 55418  69.9992 306.9330 0003418 276.0579  84.0227 15.69919972  8172,6737.263,91.724,361.431,356.825,0.0
55418.0,STARLINK-5030,PAYLOAD,2023-03-23 17:17:17,15.69942529,0.000336,69.9972,306.2133,259.3724,100.7093,0.00010388,0.00012306,0.0,0 STARLINK-5030,1 55418U 23014AD  23082.72034021  .00012306  00000-0  10388-3 0  9992,2 55418  69.9972 306.2133 0003360 259.3724 100.7093 15.69942529  8212,6737.198,91.723,361.327,356.8,0.0
55418.0,STARLINK-5030,PAYLOAD,2023-03-24 02:27:48,15.69954618,0.0003261,69.9975,305.1398,283.4581,76.6252,0.00019004,0.00022728,0.0,0 STARLINK-5030,1 55418U 23014AD  23083.10263952  .00022728  00000-0  19004-3 0  9995,2 55418  69.9975 305.1398 0003261 283.4581  76.6252 15.69954618  9216,6737.164,91.722,361.226,356.832,0.0
55418.0,STARLINK-5030,PAYLOAD,2023-03-24 16:13:33,15.69933965,0.0003738,69.9996,303.5312,262.6893,97.3878,1.8016e-05,1.955e-05,0.0,0 STARLINK-5030,1 55418U 23014AD  23083.67608682  .00001955  00000-0  18016-4 0  9992,2 55418  69.9996 303.5312 0003738 262.6893  97.3878 15.69933965  8362,6737.223,91.724,361.606,356.57,0.0
55418.0,STARLINK-5030,PAYLOAD,2023-03-24 20:48:49,15.69902028,0.0004144,69.9994,302.9942,275.316,84.7563,-0.00010801,-0.00013171,0.0,0 STARLINK-5030,1 55418U 23014AD  23083.86724312 -.00013171  00000-0 -10801-3 0  9990,2 55418  69.9994 302.9942 0004144 275.3160  84.7563 15.69902028  8392,6737.314,91.725,361.971,356.387,0.0
55418.0,STARLINK-5030,PAYLOAD,2023-03-24 22:20:35,15.699025,0.0003749,69.9987,302.8138,273.1115,86.9652,-9.2017e-05,-0.00011253,0.0,0 STARLINK-5030,1 55418U 23014AD  23083.93096072 -.00011253  00000-0 -92017-4 0  9992,2 55418  69.9987 302.8138 0003749 273.1115  86.9652 15.69902500  9340,6737.313,91.725,361.704,356.652,0.0
55418.0,STARLINK-5030,PAYLOAD,2023-03-25 02:55:51,15.69885603,0.0003304,69.9986,302.2766,270.5515,89.5302,-0.00010367,-0.00012639,0.0,0 STARLINK-5030,1 55418U 23014AD  23084.12212059 -.00012639  00000-0 -10367-3 0  9995,2 55418  69.9986 302.2766 0003304 270.5515  89.5302 15.69885603  8436,6737.361,91.726,361.452,357.0,0.0
55418.0,STARLINK-5030,PAYLOAD,2023-03-25 18:13:22,15.69930033,0.0003617,69.9998,300.4847,276.5486,83.5298,0.00022709,0.00027189,0.0,0 STARLINK-5030,1 55418U 23014AD  23084.75928945  .00027189  00000-0  22709-3 0  9999,2 55418  69.9998 300.4847 0003617 276.5486  83.5298 15.69930033  8536,6737.234,91.724,361.536,356.662,0.0
55418.0,STARLINK-5030,PAYLOAD,2023-03-26 01:52:07,15.6994203,0.0003124,69.9995,299.5891,282.8,77.2847,5.3491e-05,6.228e-05,0.0,0 STARLINK-5030,1 55418U 23014AD  23085.07786910  .00006228  00000-0  53491-4 0  9993,2 55418  69.9995 299.5891 0003124 282.8000  77.2847 15.69942030  8580,6737.2,91.723,361.17,356.96,0.0
